CCSDS_OMM_VERS,COMMENT,CREATION_DATE,ORIGINATOR,OBJECT_NAME,OBJECT_ID,CENTER_NAME,REF_FRAME,TIME_SYSTEM,MEAN_ELEMENT_THEORY,EPOCH,MEAN_MOTION,ECCENTRICITY,INCLINATION,RA_OF_ASC_NODE,ARG_OF_PERICENTER,MEAN_ANOMALY,EPHEMERIS_TYPE,CLASSIFICATION_TYPE,NORAD_CAT_ID,ELEMENT_SET_NO,REV_AT_EPOCH,BSTAR,MEAN_MOTION_DOT,MEAN_MOTION_DDOT,SEMIMAJOR_AXIS,PERIOD,APOAPSIS,PERIAPSIS,OBJECT_TYPE,RCS_SIZE,COUNTRY_CODE,LAUNCH_DATE,SITE,DECAY_DATE,FILE,GP_ID,TLE_LINE0,TLE_LINE1,TLE_LINE2,,,,,,,AVG_ALTITUDE,,AVG_VELOCITY
2,GENERATED VIA SPACE-TRACK.ORG API,2022-06-03T02:31:39,18 SPCS,ONEWEB-0024,2020-008G,EARTH,TEME,UTC,SGP4,2022-06-02T17:48:17.124768,13.10373192,0.0001867,87.8892,329.4276,86.7289,273.4052,0,U,45137,999,11501,0.00080809,2.95E-06,0,7599.853,109.892,1223.137,1220.299,PAYLOAD,LARGE,UK,2/6/2020,TTMTR,,3477983,205210285,0 ONEWEB-0024,1 45137U 20008G   22153.74186487  .00000295  00000-0  80809-3 0  9992,2 45137  87.8892 329.4276 0001867  86.7289 273.4052 13.10373192115010,,,,,,,1229.853,,7.24213012
2,GENERATED VIA SPACE-TRACK.ORG API,2022-06-03T02:31:39,18 SPCS,ONEWEB-0025,2020-008H,EARTH,TEME,UTC,SGP4,2022-06-02T18:12:55.408896,13.10374339,0.0001768,87.8844,329.6338,87.463,272.67,0,U,45138,999,11534,-0.00091683,-3.07E-06,0,7599.848,109.892,1223.057,1220.37,PAYLOAD,LARGE,UK,2/6/2020,TTMTR,,3477983,205208534,0 ONEWEB-0025,1 45138U 20008H   22153.75897464 -.00000307  00000-0 -91683-3 0  9996,2 45138  87.8844 329.6338 0001768  87.4630 272.6700 13.10374339115348,,,,,,,1229.848,,7.242132502
2,GENERATED VIA SPACE-TRACK.ORG API,2022-06-03T06:26:12,18 SPCS,ONEWEB-0026,2020-008J,EARTH,TEME,UTC,SGP4,2022-06-02T21:13:01.900992,13.11124078,0.0002907,87.8815,314.2262,96.2644,263.8815,0,U,45139,999,11864,-0.33249,-0.0011587,0,7596.951,109.829,1221.024,1216.607,PAYLOAD,LARGE,UK,2/6/2020,TTMTR,,3478058,205215856,0 ONEWEB-0026,1 45139U 20008J   22153.88404978 -.00115870  00000-0 -33249+0 0  9997,2 45139  87.8815 314.2262 0002907  96.2644 263.8815 13.11124078118641,,,,,,,1226.951,,7.243513218
2,GENERATED VIA SPACE-TRACK.ORG API,2022-06-03T02:31:39,18 SPCS,ONEWEB-0028,2020-008K,EARTH,TEME,UTC,SGP4,2022-06-02T16:28:48.421056,13.11415721,0.0001503,87.8824,314.3488,64.888,295.2404,0,U,45140,999,11523,-0.00019831,-5.80E-07,0,7595.824,109.805,1218.831,1216.548,PAYLOAD,LARGE,UK,2/6/2020,TTMTR,,3477983,205209536,0 ONEWEB-0028,1 45140U 20008K   22153.68667154 -.00000058  00000-0 -19831-3 0  9990,2 45140  87.8824 314.3488 0001503  64.8880 295.2404 13.11415721115231,,,,,,,1225.824,,7.244050562
2,GENERATED VIA SPACE-TRACK.ORG API,2022-06-03T02:31:39,18 SPCS,ONEWEB-0032,2020-008L,EARTH,TEME,UTC,SGP4,2022-06-02T18:35:24.083520,13.10375926,0.0001626,87.8799,329.5767,88.9334,271.1979,0,U,45141,999,11507,0.0014702,5.26E-06,0,7599.842,109.892,1222.943,1220.471,PAYLOAD,LARGE,UK,2/6/2020,TTMTR,,3477983,205209785,0 ONEWEB-0032,1 45141U 20008L   22153.77458430  .00000526  00000-0  14702-2 0  9995,2 45141  87.8799 329.5767 0001626  88.9334 271.1979 13.10375926115071,,,,,,,1229.842,,7.242135361
2,GENERATED VIA SPACE-TRACK.ORG API,2022-06-03T06:36:13,18 SPCS,ONEWEB-0033,2020-008M,EARTH,TEME,UTC,SGP4,2022-06-02T21:39:23.908320,13.10368419,0.0001836,87.8793,329.4826,101.1931,258.9403,0,U,45142,999,11590,-0.0018494,-6.33E-06,0,7599.871,109.893,1223.131,1220.341,PAYLOAD,LARGE,UK,2/6/2020,TTMTR,,3478117,205217573,0 ONEWEB-0033,1 45142U 20008M   22153.90236005 -.00000633  00000-0 -18494-2 0  9996,2 45142  87.8793 329.4826 0001836 101.1931 258.9403 13.10368419115901,,,,,,,1229.871,,7.242121544
2,GENERATED VIA SPACE-TRACK.ORG API,2022-06-03T02:31:39,18 SPCS,ONEWEB-0035,2020-008N,EARTH,TEME,UTC,SGP4,2022-06-02T18:44:22.124832,13.1037552,0.0002003,87.8819,329.6161,95.3856,264.75,0,U,45143,999,11471,0.0016847,6.01E-06,0,7599.844,109.892,1223.231,1220.186,PAYLOAD,LARGE,UK,2/6/2020,TTMTR,,3477983,205209285,0 ONEWEB-0035,1 45143U 20008N   22153.78081163  .00000601  00000-0  16847-2 0  9999,2 45143  87.8819 329.6161 0002003  95.3856 264.7500 13.10375520114714,,,,,,,1229.844,,7.242134408
2,GENERATED VIA SPACE-TRACK.ORG API,2022-06-03T02:31:39,18 SPCS,ONEWEB-0036,2020-008P,EARTH,TEME,UTC,SGP4,2022-06-02T18:30:55.406304,13.10376198,0.0002027,87.8821,329.5708,88.5013,271.6346,0,U,45144,999,11514,0.00088936,3.23E-06,0,7599.841,109.892,1223.247,1220.166,PAYLOAD,LARGE,UK,2/6/2020,TTMTR,,3477983,205210037,0 ONEWEB-0036,1 45144U 20008P   22153.77147461  .00000323  00000-0  88936-3 0  9993,2 45144  87.8821 329.5708 0002027  88.5013 271.6346 13.10376198115144,,,,,,,1229.841,,7.242135838
2,GENERATED VIA SPACE-TRACK.ORG API,2022-06-03T02:31:39,18 SPCS,ONEWEB-0038,2020-008Q,EARTH,TEME,UTC,SGP4,2022-06-02T17:30:12.870432,13.1141726,0.0001188,87.8847,314.3582,60.4686,299.6561,0,U,45145,999,11694,0.00091143,3.36E-06,0,7595.818,109.805,1218.586,1216.781,PAYLOAD,LARGE,UK,2/6/2020,TTMTR,,3477983,205210286,0 ONEWEB-0038,1 45145U 20008Q   22153.72931563  .00000336  00000-0  91143-3 0  9991,2 45145  87.8847 314.3582 0001188  60.4686 299.6561 13.11417260116942,,,,,,,1225.818,,7.244053423
2,GENERATED VIA SPACE-TRACK.ORG API,2022-06-03T06:36:13,18 SPCS,ONEWEB-0039,2020-008R,EARTH,TEME,UTC,SGP4,2022-06-02T23:33:48.970656,13.10372054,0.0001686,87.8814,329.569,70.8602,289.2708,0,U,45146,999,11574,-0.0017081,-5.84E-06,0,7599.857,109.892,1223.003,1220.441,PAYLOAD,LARGE,UK,2/6/2020,TTMTR,,3478085,205216629,0 ONEWEB-0039,1 45146U 20008R   22153.98181679 -.00000584  00000-0 -17081-2 0  9990,2 45146  87.8814 329.5690 0001686  70.8602 289.2708 13.10372054115746,,,,,,,1229.857,,7.242128214
2,GENERATED VIA SPACE-TRACK.ORG API,2022-06-03T02:31:39,18 SPCS,ONEWEB-0040,2020-008S,EARTH,TEME,UTC,SGP4,2022-06-02T17:54:59.826528,13.10373975,0.0001949,87.8816,329.6638,86.098,274.037,0,U,45147,999,11463,-0.001839,-6.29E-06,0,7599.85,109.892,1223.196,1220.233,PAYLOAD,LARGE,UK,2/6/2020,TTMTR,,3477983,205208785,0 ONEWEB-0040,1 45147U 20008S   22153.74652577 -.00000629  00000-0 -18390-2 0  9999,2 45147  87.8816 329.6638 0001949  86.0980 274.0370 13.10373975114639,,,,,,,1229.85,,7.242131549
2,GENERATED VIA SPACE-TRACK.ORG API,2022-06-03T02:31:39,18 SPCS,ONEWEB-0043,2020-008U,EARTH,TEME,UTC,SGP4,2022-06-02T17:57:15.605856,13.10366944,0.0002189,87.8819,329.6176,82.6405,277.4971,0,U,45149,999,11495,-0.0017609,-6.02E-06,0,7599.877,109.893,1223.405,1220.078,PAYLOAD,LARGE,UK,2/6/2020,TTMTR,,3477983,205209786,0 ONEWEB-0043,1 45149U 20008U   22153.74809729 -.00000602  00000-0 -17609-2 0  9997,2 45149  87.8819 329.6176 0002189  82.6405 277.4971 13.10366944114959,,,,,,,1229.877,,7.242118685
2,GENERATED VIA SPACE-TRACK.ORG API,2022-06-03T02:31:39,18 SPCS,ONEWEB-0044,2020-008V,EARTH,TEME,UTC,SGP4,2022-06-02T18:37:38.740512,13.10375499,0.0001812,87.8818,329.6145,77.1597,282.9733,0,U,45150,999,11525,0.0015361,5.49E-06,0,7599.844,109.892,1223.086,1220.332,PAYLOAD,LARGE,UK,2/6/2020,TTMTR,,3477983,205209036,0 ONEWEB-0044,1 45150U 20008V   22153.77614283  .00000549  00000-0  15361-2 0  9992,2 45150  87.8818 329.6145 0001812  77.1597 282.9733 13.10375499115255,,,,,,,1229.844,,7.242134408
2,GENERATED VIA SPACE-TRACK.ORG API,2022-06-03T06:36:13,18 SPCS,ONEWEB-0045,2020-008W,EARTH,TEME,UTC,SGP4,2022-06-02T21:19:38.069184,13.11418439,0.0001515,87.8797,314.3027,95.7828,264.3473,0,U,45151,999,11782,0.001372,4.99E-06,0,7595.814,109.805,1218.83,1216.528,PAYLOAD,LARGE,UK,2/6/2020,TTMTR,,3478144,205217597,0 ONEWEB-0045,1 45151U 20008W   22153.88863506  .00000499  00000-0  13720-2 0  9990,2 45151  87.8797 314.3027 0001515  95.7828 264.3473 13.11418439117828,,,,,,,1225.814,,7.24405533
2,GENERATED VIA SPACE-TRACK.ORG API,2022-06-03T06:26:12,18 SPCS,ONEWEB-0047,2020-008X,EARTH,TEME,UTC,SGP4,2022-06-02T22:06:20.002176,13.10377567,0.0001895,87.8822,329.5822,85.0112,275.1231,0,U,45152,999,11578,0.00031528,1.23E-06,0,7599.836,109.892,1223.141,1220.261,PAYLOAD,LARGE,UK,2/6/2020,TTMTR,,3478067,205215915,0 ONEWEB-0047,1 45152U 20008X   22153.92106484  .00000123  00000-0  31528-3 0  9992,2 45152  87.8822 329.5822 0001895  85.0112 275.1231 13.10377567115788,,,,,,,1229.836,,7.24213822
2,GENERATED VIA SPACE-TRACK.ORG API,2022-06-03T02:31:39,18 SPCS,ONEWEB-0048,2020-008Y,EARTH,TEME,UTC,SGP4,2022-06-02T18:19:41.593440,13.10376243,0.0002089,87.8824,329.6131,84.5006,275.636,0,U,45153,999,11458,-0.00019627,-5.60E-07,0,7599.841,109.892,1223.294,1220.118,PAYLOAD,LARGE,UK,2/6/2020,TTMTR,,3477983,205210287,0 ONEWEB-0048,1 45153U 20008Y   22153.76367585 -.00000056  00000-0 -19627-3 0  9999,2 45153  87.8824 329.6131 0002089  84.5006 275.6360 13.10376243114582,,,,,,,1229.841,,7.242135838
2,GENERATED VIA SPACE-TRACK.ORG API,2022-06-03T02:31:39,18 SPCS,ONEWEB-0049,2020-008Z,EARTH,TEME,UTC,SGP4,2022-06-02T18:21:54.134496,13.10374649,0.000216,87.8816,329.5865,86.1676,273.9698,0,U,45154,999,11480,-0.0010957,-3.70E-06,0,7599.847,109.892,1223.354,1220.071,PAYLOAD,LARGE,UK,2/6/2020,TTMTR,,3477983,205208536,0 ONEWEB-0049,1 45154U 20008Z   22153.76520989 -.00000370  00000-0 -10957-2 0  9994,2 45154  87.8816 329.5865 0002160  86.1676 273.9698 13.10374649114806,,,,,,,1229.847,,7.242132979
2,GENERATED VIA SPACE-TRACK.ORG API,2022-06-03T02:31:39,18 SPCS,ONEWEB-0051,2020-008AA,EARTH,TEME,UTC,SGP4,2022-06-02T17:36:41.561568,13.11413407,0.0001427,87.8876,314.2437,100.0121,260.1168,0,U,45155,999,11770,0.004141,1.48E-05,0,7595.833,109.805,1218.782,1216.614,PAYLOAD,LARGE,UK,2/6/2020,TTMTR,,3477983,205208786,0 ONEWEB-0051,1 45155U 20008AA  22153.73381437  .00001480  00000-0  41410-2 0  9994,2 45155  87.8876 314.2437 0001427 100.0121 260.1168 13.11413407117704,,,,,,,1225.833,,7.24404627
2,GENERATED VIA SPACE-TRACK.ORG API,2022-06-03T02:31:39,18 SPCS,ONEWEB-0052,2020-008AB,EARTH,TEME,UTC,SGP4,2022-06-02T18:17:25.476288,13.1037439,0.0002804,87.8818,329.5728,80.5154,279.629,0,U,45156,999,11471,-0.0011458,-3.87E-06,0,7599.848,109.892,1223.844,1219.582,PAYLOAD,LARGE,UK,2/6/2020,TTMTR,,3477983,205209538,0 ONEWEB-0052,1 45156U 20008AB  22153.76210042 -.00000387  00000-0 -11458-2 0  9997,2 45156  87.8818 329.5728 0002804  80.5154 279.6290 13.10374390114716,,,,,,,1229.848,,7.242132502
